[{"OBJECT_NAME":"STARLINK-34398","OBJECT_ID":"2025-130H","EPOCH":"2026-03-09T07:47:36.043008","MEAN_MOTION":15.30194482,"ECCENTRICITY":0.00012443,"INCLINATION":53.1598,"RA_OF_ASC_NODE":90.484,"ARG_OF_PERICENTER":88.7999,"MEAN_ANOMALY":271.3144,"EPHEMERIS_TYPE":0,"CLASSIFICATION_TYPE":"U","NORAD_CAT_ID":64445,"ELEMENT_SET_NO":999,"REV_AT_EPOCH":4064,"BSTAR":0.00077254153,"MEAN_MOTION_DOT":0.00022587,"MEAN_MOTION_DDOT":0},{"OBJECT_NAME":"COSMOS 1461","OBJECT_ID":"1983-044A","EPOCH":"2026-03-09T23:27:40.254336","MEAN_MOTION":15.35034079,"ECCENTRICITY":0.00529955,"INCLINATION":64.9902,"RA_OF_ASC_NODE":19.3405,"ARG_OF_PERICENTER":227.9657,"MEAN_ANOMALY":131.6963,"EPHEMERIS_TYPE":0,"CLASSIFICATION_TYPE":"U","NORAD_CAT_ID":14064,"ELEMENT_SET_NO":999,"REV_AT_EPOCH":20189,"BSTAR":0.00068784348,"MEAN_MOTION_DOT":0.00024451,"MEAN_MOTION_DDOT":0}]
